start=new Date('2022-10-14T00:00:00.000Z').valueOf();
sats=[{"DECAY_DATE":null,"CLASSIFICATION_TYPE":"U","MEAN_MOTION_DDOT":"0.0000000000000","COUNTRY_CODE":"US","ARG_OF_PERICENTER":"102.9488","REV_AT_EPOCH":"10437","FILE":"3609636","OBJECT_ID":"2020-088J","EPHEMERIS_TYPE":"0","SITE":"AFETR","PERIAPSIS":"512.974","SEMIMAJOR_AXIS":"6891.996","APOAPSIS":"514.749","MEAN_ELEMENT_THEORY":"SGP4","MEAN_MOTION_DOT":"0.00587532","NORAD_CAT_ID":"47130","TIME_SYSTEM":"UTC","CENTER_NAME":"EARTH","LAUNCH_DATE":"2020-11-25","RA_OF_ASC_NODE":"130.7223","GP_ID":"215026918","REF_FRAME":"TEME","ELEMENT_SET_NO":"999","ECCENTRICITY":"0.00012880","BSTAR":"0.02714500000000","OBJECT_NAME":"STARLINK-1839","EPOCH":"2022-10-13T20:14:08.064096","MEAN_MOTION":"15.17348059","RCS_SIZE":"LARGE","INCLINATION":"53.0529","TLE_LINE2":"2 47130  53.0529 130.7223 0001288 102.9488 257.1649 15.17348059104372","PERIOD":"94.902","MEAN_ANOMALY":"257.1649","TLE_LINE1":"1 47130U 20088J   22286.84314889  .00587532  00000-0  27145-1 0  9998","OBJECT_TYPE":"PAYLOAD"},{"ELEMENT_SET_NO":"999","ECCENTRICITY":"0.00013850","GP_ID":"215025681","REF_FRAME":"TEME","RCS_SIZE":"LARGE","MEAN_MOTION":"15.06401199","OBJECT_NAME":"STARLINK-1843","BSTAR":"0.00026623000000","EPOCH":"2022-10-13T19:25:36.284736","INCLINATION":"53.0544","TLE_LINE2":"2 47133  53.0544 111.1385 0001385 119.0531 241.0597 15.06401199104647","PERIOD":"95.592","MEAN_ANOMALY":"241.0597","OBJECT_TYPE":"PAYLOAD","TLE_LINE1":"1 47133U 20088M   22286.80944774  .00003686  00000-0  26623-3 0  9994","COUNTRY_CODE":"US","ARG_OF_PERICENTER":"119.0531","CLASSIFICATION_TYPE":"U","DECAY_DATE":null,"MEAN_MOTION_DDOT":"0.0000000000000","SITE":"AFETR","PERIAPSIS":"546.251","SEMIMAJOR_AXIS":"6925.345","FILE":"3609636","REV_AT_EPOCH":"10464","EPHEMERIS_TYPE":"0","OBJECT_ID":"2020-088M","APOAPSIS":"548.169","CENTER_NAME":"EARTH","LAUNCH_DATE":"2020-11-25","RA_OF_ASC_NODE":"111.1385","MEAN_ELEMENT_THEORY":"SGP4","NORAD_CAT_ID":"47133","TIME_SYSTEM":"UTC","MEAN_MOTION_DOT":"0.00003686"},{"MEAN_ANOMALY":"252.7664","PERIOD":"95.593","TLE_LINE2":"2 47134  53.0548 120.9533 0001227 107.3459 252.7664 15.06392109104519","INCLINATION":"53.0548","OBJECT_TYPE":"PAYLOAD","TLE_LINE1":"1 47134U 20088N   22286.84906992  .00002233  00000-0  16881-3 0  9991","REF_FRAME":"TEME","GP_ID":"215025931","ECCENTRICITY":"0.00012270","ELEMENT_SET_NO":"999","EPOCH":"2022-10-13T20:22:39.641088","OBJECT_NAME":"STARLINK-1844","BSTAR":"0.00016881000000","RCS_SIZE":"LARGE","MEAN_MOTION":"15.06392109","APOAPSIS":"548.087","NORAD_CAT_ID":"47134","TIME_SYSTEM":"UTC","MEAN_MOTION_DOT":"0.00002233","MEAN_ELEMENT_THEORY":"SGP4","RA_OF_ASC_NODE":"120.9533","CENTER_NAME":"EARTH","LAUNCH_DATE":"2020-11-25","MEAN_MOTION_DDOT":"0.0000000000000","DECAY_DATE":null,"CLASSIFICATION_TYPE":"U","ARG_OF_PERICENTER":"107.3459","COUNTRY_CODE":"US","EPHEMERIS_TYPE":"0","OBJECT_ID":"2020-088N","REV_AT_EPOCH":"10451","FILE":"3609636","PERIAPSIS":"546.388","SEMIMAJOR_AXIS":"6925.373","SITE":"AFETR"},{"OBJECT_ID":"2020-088P","EPHEMERIS_TYPE":"0","REV_AT_EPOCH":"10464","FILE":"3609636","SEMIMAJOR_AXIS":"6925.339","PERIAPSIS":"546.263","SITE":"AFETR","MEAN_MOTION_DDOT":"0.0000000000000","DECAY_DATE":null,"CLASSIFICATION_TYPE":"U","ARG_OF_PERICENTER":"103.9301","COUNTRY_CODE":"US","MEAN_MOTION_DOT":"0.00004377","TIME_SYSTEM":"UTC","NORAD_CAT_ID":"47135","MEAN_ELEMENT_THEORY":"SGP4","RA_OF_ASC_NODE":"111.1606","CENTER_NAME":"EARTH","LAUNCH_DATE":"2020-11-25","APOAPSIS":"548.146","EPOCH":"2022-10-13T19:14:59.084736","BSTAR":"0.00031251000000","OBJECT_NAME":"STARLINK-1845","MEAN_MOTION":"15.06402984","RCS_SIZE":"LARGE","REF_FRAME":"TEME","GP_ID":"215026182","ECCENTRICITY":"0.00013600","ELEMENT_SET_NO":"999","TLE_LINE1":"1 47135U 20088P   22286.80207274  .00004377  00000-0  31251-3 0  9994","OBJECT_TYPE":"PAYLOAD","MEAN_ANOMALY":"256.1839","PERIOD":"95.592","INCLINATION":"53.0525","TLE_LINE2":"2 47135  53.0525 111.1606 0001360 103.9301 256.1839 15.06402984104643"},{"RA_OF_ASC_NODE":"121.1517","CENTER_NAME":"EARTH","LAUNCH_DATE":"2020-11-25","TIME_SYSTEM":"UTC","NORAD_CAT_ID":"47136","MEAN_MOTION_DOT":"0.00002609","MEAN_ELEMENT_THEORY":"SGP4","APOAPSIS":"548.219","SEMIMAJOR_AXIS":"6925.368","PERIAPSIS":"546.247","SITE":"AFETR","EPHEMERIS_TYPE":"0","OBJECT_ID":"2020-088Q","FILE":"3609636","REV_AT_EPOCH":"10450","ARG_OF_PERICENTER":"122.0937","COUNTRY_CODE":"US","MEAN_MOTION_DDOT":"0.0000000000000","DECAY_DATE":null,"CLASSIFICATION_TYPE":"U","TLE_LINE1":"1 47136U 20088Q   22286.80115206  .00002609  00000-0  19400-3 0  9996","OBJECT_TYPE":"PAYLOAD","PERIOD":"95.593","MEAN_ANOMALY":"238.0190","INCLINATION":"53.0539","TLE_LINE2":"2 47136  53.0539 121.1517 0001424 122.0937 238.0190 15.06393758104501","RCS_SIZE":"LARGE","MEAN_MOTION":"15.06393758","EPOCH":"2022-10-13T19:13:39.537984","OBJECT_NAME":"STARLINK-1846","BSTAR":"0.00019400000000","ELEMENT_SET_NO":"999","ECCENTRICITY":"0.00014240","REF_FRAME":"TEME","GP_ID":"215026418"},{"DECAY_DATE":null,"CLASSIFICATION_TYPE":"U","MEAN_MOTION_DDOT":"0.0000000000000","COUNTRY_CODE":"US","ARG_OF_PERICENTER":"89.4139","REV_AT_EPOCH":"10464","FILE":"3609636","OBJECT_ID":"2020-088R","EPHEMERIS_TYPE":"0","SITE":"AFETR","SEMIMAJOR_AXIS":"6925.305","PERIAPSIS":"546.158","APOAPSIS":"548.183","MEAN_ELEMENT_THEORY":"SGP4","MEAN_MOTION_DOT":"0.00012191","TIME_SYSTEM":"UTC","NORAD_CAT_ID":"47137","LAUNCH_DATE":"2020-11-25","CENTER_NAME":"EARTH","RA_OF_ASC_NODE":"111.2445","GP_ID":"215025181","REF_FRAME":"TEME","ECCENTRICITY":"0.00014620","ELEMENT_SET_NO":"999","BSTAR":"0.00083558000000","OBJECT_NAME":"STARLINK-1849","EPOCH":"2022-10-13T18:48:27.499968","MEAN_MOTION":"15.06414155","RCS_SIZE":"LARGE","TLE_LINE2":"2 47137  53.0527 111.2445 0001462  89.4139 270.7018 15.06414155104643","INCLINATION":"53.0527","MEAN_ANOMALY":"270.7018","PERIOD":"95.591","OBJECT_TYPE":"PAYLOAD","TLE_LINE1":"1 47137U 20088R   22286.78365162  .00012191  00000-0  83558-3 0  9994"},{"APOAPSIS":"548.157","RA_OF_ASC_NODE":"118.9607","LAUNCH_DATE":"2020-11-25","CENTER_NAME":"EARTH","MEAN_MOTION_DOT":"0.00001252","TIME_SYSTEM":"UTC","NORAD_CAT_ID":"47138","MEAN_ELEMENT_THEORY":"SGP4","ARG_OF_PERICENTER":"89.3299","COUNTRY_CODE":"US","MEAN_MOTION_DDOT":"0.0000000000000","DECAY_DATE":null,"CLASSIFICATION_TYPE":"U","PERIAPSIS":"546.351","SEMIMAJOR_AXIS":"6925.389","SITE":"AFETR","EPHEMERIS_TYPE":"0","OBJECT_ID":"2020-088S","FILE":"3609209","REV_AT_EPOCH":"10449","PERIOD":"95.593","MEAN_ANOMALY":"270.7839","INCLINATION":"53.0549","TLE_LINE2":"2 47138  53.0549 118.9607 0001304  89.3299 270.7839 15.06386864104492","OBJECT_TYPE":"PAYLOAD","TLE_LINE1":"1 47138U 20088S   22286.25060827  .00001252  00000-0  10299-3 0  9995","ECCENTRICITY":"0.00013040","ELEMENT_SET_NO":"999","REF_FRAME":"TEME","GP_ID":"214992115","MEAN_MOTION":"15.06386864","RCS_SIZE":"LARGE","EPOCH":"2022-10-13T06:00:52.554528","BSTAR":"0.00010299000000","OBJECT_NAME":"STARLINK-1850"},{"APOAPSIS":"548.166","RA_OF_ASC_NODE":"126.2164","LAUNCH_DATE":"2020-11-25","CENTER_NAME":"EARTH","TIME_SYSTEM":"UTC","NORAD_CAT_ID":"47139","MEAN_MOTION_DOT":"0.00007107","MEAN_ELEMENT_THEORY":"SGP4","ARG_OF_PERICENTER":"108.9890","COUNTRY_CODE":"US","MEAN_MOTION_DDOT":"0.0000000000000","CLASSIFICATION_TYPE":"U","DECAY_DATE":null,"PERIAPSIS":"546.195","SEMIMAJOR_AXIS":"6925.316","SITE":"AFETR","EPHEMERIS_TYPE":"0","OBJECT_ID":"2020-088T","REV_AT_EPOCH":"10443","FILE":"3609636","MEAN_ANOMALY":"251.1253","PERIOD":"95.591","INCLINATION":"53.0516","TLE_LINE2":"2 47139  53.0516 126.2164 0001423 108.9890 251.1253 15.06410783104439","TLE_LINE1":"1 47139U 20088T   22286.83205288  .00007107  00000-0  49540-3 0  9998","OBJECT_TYPE":"PAYLOAD","ELEMENT_SET_NO":"999","ECCENTRICITY":"0.00014230","REF_FRAME":"TEME","GP_ID":"215026683","RCS_SIZE":"LARGE","MEAN_MOTION":"15.06410783","EPOCH":"2022-10-13T19:58:09.368832","OBJECT_NAME":"STARLINK-1852","BSTAR":"0.00049540000000"},{"OBJECT_ID":"2020-088V","EPHEMERIS_TYPE":"0","FILE":"3608619","REV_AT_EPOCH":"10491","SEMIMAJOR_AXIS":"6925.388","PERIAPSIS":"546.340","SITE":"AFETR","MEAN_MOTION_DDOT":"0.0000000000000","CLASSIFICATION_TYPE":"U","DECAY_DATE":null,"ARG_OF_PERICENTER":"112.1882","COUNTRY_CODE":"US","TIME_SYSTEM":"UTC","NORAD_CAT_ID":"47141","MEAN_MOTION_DOT":"-0.00000230","MEAN_ELEMENT_THEORY":"SGP4","RA_OF_ASC_NODE":"111.9616","LAUNCH_DATE":"2020-11-25","CENTER_NAME":"EARTH","APOAPSIS":"548.166","EPOCH":"2022-10-13T15:00:13.608000","OBJECT_NAME":"STARLINK-1854","BSTAR":"0.00000343820000","RCS_SIZE":"LARGE","MEAN_MOTION":"15.06387157","REF_FRAME":"TEME","GP_ID":"214956965","ECCENTRICITY":"0.00013180","ELEMENT_SET_NO":"999","OBJECT_TYPE":"PAYLOAD","TLE_LINE1":"1 47141U 20088V   22286.62515750 -.00000230  00000-0  34382-5 0  9997","MEAN_ANOMALY":"247.9246","PERIOD":"95.593","TLE_LINE2":"2 47141  53.0532 111.9616 0001318 112.1882 247.9246 15.06387157104910","INCLINATION":"53.0532"},{"APOAPSIS":"548.079","MEAN_ELEMENT_THEORY":"SGP4","MEAN_MOTION_DOT":"0.00001280","NORAD_CAT_ID":"47143","TIME_SYSTEM":"UTC","LAUNCH_DATE":"2020-11-25","CENTER_NAME":"EARTH","RA_OF_ASC_NODE":"111.1419","CLASSIFICATION_TYPE":"U","DECAY_DATE":null,"MEAN_MOTION_DDOT":"0.0000000000000","COUNTRY_CODE":"US","ARG_OF_PERICENTER":"94.8311","REV_AT_EPOCH":"10464","FILE":"3609636","OBJECT_ID":"2020-088X","EPHEMERIS_TYPE":"0","SITE":"AFETR","PERIAPSIS":"546.406","SEMIMAJOR_AXIS":"6925.378","TLE_LINE2":"2 47143  53.0552 111.1419 0001208  94.8311 265.2816 15.06390468104643","INCLINATION":"53.0552","MEAN_ANOMALY":"265.2816","PERIOD":"95.593","TLE_LINE1":"1 47143U 20088X   22286.80576561  .00001280  00000-0  10481-3 0  9993","OBJECT_TYPE":"PAYLOAD","GP_ID":"215025682","REF_FRAME":"TEME","ECCENTRICITY":"0.00012080","ELEMENT_SET_NO":"999","BSTAR":"0.00010481000000","OBJECT_NAME":"STARLINK-1856","EPOCH":"2022-10-13T19:20:18.148704","MEAN_MOTION":"15.06390468","RCS_SIZE":"LARGE"}];
